0 CUBESAT XI-IV
1 27848U 03031J   13282.50433167  .00000204  00000-0  11436-3 0  7027
2 27848 098.7111 289.4958 0008518 285.8969 236.3946 14.20997716532898
0 CUBESAT XI-IV
1 27848U 03031J   13283.83453824  .00000191  00000-0  10841-3 0  7031
2 27848 098.7110 290.8080 0008511 281.4405 201.8065 14.20998249533082
0 CUBESAT XI-IV
1 27848U 03031J   13286.28791792  .00000207  00000-0  11583-3 0  7056
2 27848 098.7107 293.2272 0008541 273.4440 153.2212 14.20999177533435
0 CUBESAT XI-IV
1 27848U 03031J   13287.50365997  .00000214  00000-0  11909-3 0  7067
2 27848 098.7106 294.4261 0008562 269.5588 252.8439 14.21000136533602
0 CUBESAT XI-IV
1 27848U 03031J   13288.83386810  .00000246  00000-0  13374-3 0  7075
2 27848 098.7105 295.7376 0008574 265.3224 218.0576 14.21001266533797
0 CUBESAT XI-IV
1 27848U 03031J   13290.59414918  .00000245  00000-0  13300-3 0  7081
2 27848 098.7107 297.4731 0008613 259.6501 223.5548 14.21002351534046
0 CUBESAT XI-IV
1 27848U 03031J   13291.86108861  .00000250  00000-0  13549-3 0  7091
2 27848 098.7109 298.7222 0008652 255.5611 225.1554 14.21002932534227
0 CUBESAT XI-IV
1 27848U 03031J   13292.97705900  .00000258  00000-0  13917-3 0  7100
2 27848 098.7110 299.8225 0008686 252.0712 174.2954 14.21003660534389
0 CUBESAT XI-IV
1 27848U 03031J   13294.81937851  .00000289  00000-0  15329-3 0  7111
2 27848 098.7111 301.6389 0008749 246.1651 239.4842 14.21004771534642
0 CUBESAT XI-IV
1 27848U 03031J   13296.00231722  .00000294  00000-0  15566-3 0  7128
2 27848 098.7110 302.8054 0008790 242.4178 171.2799 14.21005501534817
